[{"OBJECT_NAME":"OMNI-L1","OBJECT_ID":"2022-033A","EPOCH":"2026-03-09T18:17:57.515136","MEAN_MOTION":14.82332031,"ECCENTRICITY":0.00041768,"INCLINATION":97.8437,"RA_OF_ASC_NODE":149.8867,"ARG_OF_PERICENTER":239.5238,"MEAN_ANOMALY":120.5563,"EPHEMERIS_TYPE":0,"CLASSIFICATION_TYPE":"U","NORAD_CAT_ID":52157,"ELEMENT_SET_NO":999,"REV_AT_EPOCH":21272,"BSTAR":0.00038598554,"MEAN_MOTION_DOT":3.035e-5,"MEAN_MOTION_DDOT":0},{"OBJECT_NAME":"IRIDIUM 5","OBJECT_ID":"1997-020D","EPOCH":"2026-03-09T18:04:20.752608","MEAN_MOTION":14.97634702,"ECCENTRICITY":0.00996159,"INCLINATION":86.3893,"RA_OF_ASC_NODE":320.9794,"ARG_OF_PERICENTER":262.9032,"MEAN_ANOMALY":96.0864,"EPHEMERIS_TYPE":0,"CLASSIFICATION_TYPE":"U","NORAD_CAT_ID":24795,"ELEMENT_SET_NO":999,"REV_AT_EPOCH":52516,"BSTAR":0.00037671843,"MEAN_MOTION_DOT":4.91e-5,"MEAN_MOTION_DDOT":0}]
